CCSDS_OMM_VERS = 2.0
CREATION_DATE  = 
ORIGINATOR     = 

OBJECT_NAME    = SL-14 R/B
OBJECT_ID      = 1986-046B
CENTER_NAME    = EARTH
REF_FRAME      = TEME
TIME_SYSTEM    = UTC
MEAN_ELEMENT_THEORY = SGP/SGP4

EPOCH          = 2025-12-09T00:14:01.906656
MEAN_MOTION    = 14.85478097
ECCENTRICITY   = .00234738
INCLINATION    = 82.4811
RA_OF_ASC_NODE = 165.8369
ARG_OF_PERICENTER = 164.2876
MEAN_ANOMALY   = 195.9074

EPHEMERIS_TYPE = 0
CLASSIFICATION_TYPE = U
NORAD_CAT_ID   = 16792
ELEMENT_SET_NO = 999
REV_AT_EPOCH   = 11294
BSTAR          = .88000158E-4
MEAN_MOTION_DOT = .787E-5
MEAN_MOTION_DDOT = 0

CCSDS_OMM_VERS = 2.0
CREATION_DATE  = 
ORIGINATOR     = 

OBJECT_NAME    = SL-14 R/B
OBJECT_ID      = 1986-055B
CENTER_NAME    = EARTH
REF_FRAME      = TEME
TIME_SYSTEM    = UTC
MEAN_ELEMENT_THEORY = SGP/SGP4

EPOCH          = 2025-12-09T03:40:34.006368
MEAN_MOTION    = 14.85526142
ECCENTRICITY   = .00174625
INCLINATION    = 82.5208
RA_OF_ASC_NODE = 211.7428
ARG_OF_PERICENTER = 272.3667
MEAN_ANOMALY   = 204.2461

EPHEMERIS_TYPE = 0
CLASSIFICATION_TYPE = U
NORAD_CAT_ID   = 16882
ELEMENT_SET_NO = 999
REV_AT_EPOCH   = 10592
BSTAR          = .97086762E-4
MEAN_MOTION_DOT = .864E-5
MEAN_MOTION_DDOT = 0

CCSDS_OMM_VERS = 2.0
CREATION_DATE  = 
ORIGINATOR     = 

OBJECT_NAME    = AJISAI (EGS)
OBJECT_ID      = 1986-061A
CENTER_NAME    = EARTH
REF_FRAME      = TEME
TIME_SYSTEM    = UTC
MEAN_ELEMENT_THEORY = SGP/SGP4

EPOCH          = 2025-12-09T07:02:53.282400
MEAN_MOTION    = 12.44514227
ECCENTRICITY   = .00112911
INCLINATION    = 50.0114
RA_OF_ASC_NODE = 11.3136
ARG_OF_PERICENTER = 57.2767
MEAN_ANOMALY   = 29.2425

EPHEMERIS_TYPE = 0
CLASSIFICATION_TYPE = U
NORAD_CAT_ID   = 16908
ELEMENT_SET_NO = 999
REV_AT_EPOCH   = 45674
BSTAR          = .60119755E-4
MEAN_MOTION_DOT = -.89E-6
MEAN_MOTION_DDOT = 0

CCSDS_OMM_VERS = 2.0
CREATION_DATE  = 
ORIGINATOR     = 

OBJECT_NAME    = COSMOS 1812
OBJECT_ID      = 1987-003A
CENTER_NAME    = EARTH
REF_FRAME      = TEME
TIME_SYSTEM    = UTC
MEAN_ELEMENT_THEORY = SGP/SGP4

EPOCH          = 2025-12-09T07:11:29.855040
MEAN_MOTION    = 15.74576647
ECCENTRICITY   = .00072961
INCLINATION    = 82.4869
RA_OF_ASC_NODE = 295.7379
ARG_OF_PERICENTER = 92.1327
MEAN_ANOMALY   = 268.0773

EPHEMERIS_TYPE = 0
CLASSIFICATION_TYPE = U
NORAD_CAT_ID   = 17295
ELEMENT_SET_NO = 999
REV_AT_EPOCH   = 13011
BSTAR          = .73715139E-3
MEAN_MOTION_DOT = .108589E-2
MEAN_MOTION_DDOT = 0

CCSDS_OMM_VERS = 2.0
CREATION_DATE  = 
ORIGINATOR     = 

OBJECT_NAME    = SL-14 R/B
OBJECT_ID      = 1987-024B
CENTER_NAME    = EARTH
REF_FRAME      = TEME
TIME_SYSTEM    = UTC
MEAN_ELEMENT_THEORY = SGP/SGP4

EPOCH          = 2025-12-09T06:40:21.904320
MEAN_MOTION    = 14.86018618
ECCENTRICITY   = .00177813
INCLINATION    = 82.5277
RA_OF_ASC_NODE = 177.7065
ARG_OF_PERICENTER = 195.8644
MEAN_ANOMALY   = 164.2018

EPHEMERIS_TYPE = 0
CLASSIFICATION_TYPE = U
NORAD_CAT_ID   = 17567
ELEMENT_SET_NO = 999
REV_AT_EPOCH   = 7470
BSTAR          = .94242888E-4
MEAN_MOTION_DOT = .85E-5
MEAN_MOTION_DDOT = 0

CCSDS_OMM_VERS = 2.0
CREATION_DATE  = 
ORIGINATOR     = 

OBJECT_NAME    = COSMOS 1833
OBJECT_ID      = 1987-027A
CENTER_NAME    = EARTH
REF_FRAME      = TEME
TIME_SYSTEM    = UTC
MEAN_ELEMENT_THEORY = SGP/SGP4

EPOCH          = 2025-12-08T21:28:53.279904
MEAN_MOTION    = 14.13020017
ECCENTRICITY   = .0022371
INCLINATION    = 70.9134
RA_OF_ASC_NODE = 156.8596
ARG_OF_PERICENTER = 337.1016
MEAN_ANOMALY   = 22.9106

EPHEMERIS_TYPE = 0
CLASSIFICATION_TYPE = U
NORAD_CAT_ID   = 17589
ELEMENT_SET_NO = 999
REV_AT_EPOCH   = 99748
BSTAR          = .78017E-4
MEAN_MOTION_DOT = .98E-6
MEAN_MOTION_DDOT = 0

CCSDS_OMM_VERS = 2.0
CREATION_DATE  = 
ORIGINATOR     = 

OBJECT_NAME    = SL-16 R/B
OBJECT_ID      = 1987-027B
CENTER_NAME    = EARTH
REF_FRAME      = TEME
TIME_SYSTEM    = UTC
MEAN_ELEMENT_THEORY = SGP/SGP4

EPOCH          = 2025-12-08T18:41:54.280608
MEAN_MOTION    = 14.17152412
ECCENTRICITY   = .0007495
INCLINATION    = 71.0026
RA_OF_ASC_NODE = 108.0635
ARG_OF_PERICENTER = 263.7975
MEAN_ANOMALY   = 96.2295

EPHEMERIS_TYPE = 0
CLASSIFICATION_TYPE = U
NORAD_CAT_ID   = 17590
ELEMENT_SET_NO = 999
REV_AT_EPOCH   = 246
BSTAR          = -.17777415E-4
MEAN_MOTION_DOT = -.84E-6
MEAN_MOTION_DDOT = 0

CCSDS_OMM_VERS = 2.0
CREATION_DATE  = 
ORIGINATOR     = 

OBJECT_NAME    = SL-14 R/B
OBJECT_ID      = 1987-038B
CENTER_NAME    = EARTH
REF_FRAME      = TEME
TIME_SYSTEM    = UTC
MEAN_ELEMENT_THEORY = SGP/SGP4

EPOCH          = 2025-12-09T03:49:13.756800
MEAN_MOTION    = 14.85256002
ECCENTRICITY   = .0020852
INCLINATION    = 82.5019
RA_OF_ASC_NODE = 22.0735
ARG_OF_PERICENTER = 103.0666
MEAN_ANOMALY   = 257.2879

EPHEMERIS_TYPE = 0
CLASSIFICATION_TYPE = U
NORAD_CAT_ID   = 17912
ELEMENT_SET_NO = 999
REV_AT_EPOCH   = 6579
BSTAR          = .7369071E-4
MEAN_MOTION_DOT = .659E-5
MEAN_MOTION_DDOT = 0

CCSDS_OMM_VERS = 2.0
CREATION_DATE  = 
ORIGINATOR     = 

OBJECT_NAME    = COSMOS 1844
OBJECT_ID      = 1987-041A
CENTER_NAME    = EARTH
REF_FRAME      = TEME
TIME_SYSTEM    = UTC
MEAN_ELEMENT_THEORY = SGP/SGP4

EPOCH          = 2025-12-09T02:19:32.647296
MEAN_MOTION    = 14.14526270
ECCENTRICITY   = .00301801
INCLINATION    = 70.8982
RA_OF_ASC_NODE = 225.2547
ARG_OF_PERICENTER = 162.9621
MEAN_ANOMALY   = 197.2522

EPHEMERIS_TYPE = 0
CLASSIFICATION_TYPE = U
NORAD_CAT_ID   = 17973
ELEMENT_SET_NO = 999
REV_AT_EPOCH   = 99077
BSTAR          = -.47467481E-4
MEAN_MOTION_DOT = -.14E-5
MEAN_MOTION_DDOT = 0

CCSDS_OMM_VERS = 2.0
CREATION_DATE  = 
ORIGINATOR     = 

OBJECT_NAME    = SL-14 R/B
OBJECT_ID      = 1987-055B
CENTER_NAME    = EARTH
REF_FRAME      = TEME
TIME_SYSTEM    = UTC
MEAN_ELEMENT_THEORY = SGP/SGP4

EPOCH          = 2025-12-09T06:52:25.613184
MEAN_MOTION    = 14.85516194
ECCENTRICITY   = .00195946
INCLINATION    = 82.5001
RA_OF_ASC_NODE = 74.2428
ARG_OF_PERICENTER = 315.4513
MEAN_ANOMALY   = 44.5127

EPHEMERIS_TYPE = 0
CLASSIFICATION_TYPE = U
NORAD_CAT_ID   = 18153
ELEMENT_SET_NO = 999
REV_AT_EPOCH   = 5651
BSTAR          = .10643583E-3
MEAN_MOTION_DOT = .945E-5
MEAN_MOTION_DDOT = 0

CCSDS_OMM_VERS = 2.0
CREATION_DATE  = 
ORIGINATOR     = 

OBJECT_NAME    = COSMOS 1867
OBJECT_ID      = 1987-060A
CENTER_NAME    = EARTH
REF_FRAME      = TEME
TIME_SYSTEM    = UTC
MEAN_ELEMENT_THEORY = SGP/SGP4

EPOCH          = 2025-12-09T00:57:25.906752
MEAN_MOTION    = 14.31485205
ECCENTRICITY   = .001364
INCLINATION    = 65.0096
RA_OF_ASC_NODE = 200.5638
ARG_OF_PERICENTER = 270.7226
MEAN_ANOMALY   = 89.2295

EPHEMERIS_TYPE = 0
CLASSIFICATION_TYPE = U
NORAD_CAT_ID   = 18187
ELEMENT_SET_NO = 999
REV_AT_EPOCH   = 696
BSTAR          = .42573675E-4
MEAN_MOTION_DOT = .13E-6
MEAN_MOTION_DDOT = 0

CCSDS_OMM_VERS = 2.0
CREATION_DATE  = 
ORIGINATOR     = 

OBJECT_NAME    = SL-14 R/B
OBJECT_ID      = 1988-001B
CENTER_NAME    = EARTH
REF_FRAME      = TEME
TIME_SYSTEM    = UTC
MEAN_ELEMENT_THEORY = SGP/SGP4

EPOCH          = 2025-12-09T06:37:05.711520
MEAN_MOTION    = 14.85418510
ECCENTRICITY   = .00181514
INCLINATION    = 82.5130
RA_OF_ASC_NODE = 280.4053
ARG_OF_PERICENTER = 172.4118
MEAN_ANOMALY   = 187.7377

EPHEMERIS_TYPE = 0
CLASSIFICATION_TYPE = U
NORAD_CAT_ID   = 18749
ELEMENT_SET_NO = 999
REV_AT_EPOCH   = 2860
BSTAR          = .10585782E-3
MEAN_MOTION_DOT = .938E-5
MEAN_MOTION_DDOT = 0

