SL-14 R/B               
1 16792U 86046B   25343.00974429  .00000787  00000+0  88000-4 0  9992
2 16792  82.4811 165.8369 0023473 164.2876 195.9074 14.85478097112947
SL-14 R/B               
1 16882U 86055B   25343.15317137  .00000864  00000+0  97087-4 0  9996
2 16882  82.5208 211.7428 0017462 272.3667 204.2461 14.85526142105924
AJISAI (EGS)            
1 16908U 86061A   25343.29367225 -.00000089  00000+0  60120-4 0  9998
2 16908  50.0114  11.3136 0011291  57.2767  29.2425 12.44514227456742
COSMOS 1812             
1 17295U 87003A   25343.29965110  .00108589  00000+0  73715-3 0  9998
2 17295  82.4869 295.7379 0007296  92.1327 268.0773 15.74576647130114
SL-14 R/B               
1 17567U 87024B   25343.27803130  .00000850  00000+0  94243-4 0  9996
2 17567  82.5277 177.7065 0017781 195.8644 164.2018 14.86018618 74706
COSMOS 1833             
1 17589U 87027A   25342.89506111  .00000098  00000+0  78017-4 0  9994
2 17589  70.9134 156.8596 0022371 337.1016  22.9106 14.13020017997488
SL-16 R/B               
1 17590U 87027B   25342.77910047 -.00000084  00000+0 -17777-4 0  9993
2 17590  71.0026 108.0635 0007495 263.7975  96.2295 14.17152412  2460
SL-14 R/B               
1 17912U 87038B   25343.15918700  .00000659  00000+0  73691-4 0  9993
2 17912  82.5019  22.0735 0020852 103.0666 257.2879 14.85256002 65795
COSMOS 1844             
1 17973U 87041A   25343.09690564 -.00000140  00000+0 -47467-4 0  9991
2 17973  70.8982 225.2547 0030180 162.9621 197.2522 14.14526270990771
SL-14 R/B               
1 18153U 87055B   25343.28640756  .00000945  00000+0  10644-3 0  9993
2 18153  82.5001  74.2428 0019594 315.4513  44.5127 14.85516194 56517
COSMOS 1867             
1 18187U 87060A   25343.03988318  .00000013  00000+0  42574-4 0  9992
2 18187  65.0096 200.5638 0013640 270.7226  89.2295 14.31485205  6966
SL-14 R/B               
1 18749U 88001B   25343.27576055  .00000938  00000+0  10586-3 0  9992
2 18749  82.5130 280.4053 0018151 172.4118 187.7377 14.85418510 28605
